{
  "links" : {
    "next" : "https://api.nasa.gov/neo/rest/v1/feed?start_date=2001-08-16&end_date=2001-08-16&detailed=true&api_key=t0TVs3DtDT2H8Oy2Zy8m2eVrNsAVKAexjcZXUckd",
    "prev" : "https://api.nasa.gov/neo/rest/v1/feed?start_date=2001-08-14&end_date=2001-08-14&detailed=true&api_key=t0TVs3DtDT2H8Oy2Zy8m2eVrNsAVKAexjcZXUckd",
    "self" : "https://api.nasa.gov/neo/rest/v1/feed?start_date=2001-08-15&end_date=2001-08-15&detailed=true&api_key=t0TVs3DtDT2H8Oy2Zy8m2eVrNsAVKAexjcZXUckd"
  },
  "element_count" : 6,
  "near_earth_objects" : {
    "2001-08-15" : [ {
      "links" : {
        "self" : "https://api.nasa.gov/neo/rest/v1/neo/3608934?api_key=t0TVs3DtDT2H8Oy2Zy8m2eVrNsAVKAexjcZXUckd"
      },
      "neo_reference_id" : "3608934",
      "name" : "(2012 SB22)",
      "nasa_jpl_url" : "http://ssd.jpl.nasa.gov/sbdb.cgi?sstr=3608934",
      "absolute_magnitude_h" : 19.2,
      "estimated_diameter" : {
        "kilometers" : {
          "estimated_diameter_min" : 0.3841978911,
          "estimated_diameter_max" : 0.8590926012
        },
        "meters" : {
          "estimated_diameter_min" : 384.1978910643,
          "estimated_diameter_max" : 859.0926012318
        },
        "miles" : {
          "estimated_diameter_min" : 0.2387294278,
          "estimated_diameter_max" : 0.5338152287
        },
        "feet" : {
          "estimated_diameter_min" : 1260.4918089193,
          "estimated_diameter_max" : 2818.5453698252
        }
      },
      "is_potentially_hazardous_asteroid" : false,
      "close_approach_data" : [ {
        "close_approach_date" : "2001-08-15",
        "epoch_date_close_approach" : 997858800000,
        "relative_velocity" : {
          "kilometers_per_second" : "5.6069240858",
          "kilometers_per_hour" : "20184.9267088822",
          "miles_per_hour" : "12542.1284875274"
        },
        "miss_distance" : {
          "astronomical" : "0.3624923438",
          "lunar" : "141.0095214844",
          "kilometers" : "54228084",
          "miles" : "33695768"
        },
        "orbiting_body" : "Earth"
      } ],
      "orbital_data" : {
        "orbit_id" : "15",
        "orbit_determination_date" : "2017-04-06 08:48:54",
        "orbit_uncertainty" : "1",
        "minimum_orbit_intersection" : ".210193",
        "jupiter_tisserand_invariant" : "3.373",
        "epoch_osculation" : "2458000.5",
        "eccentricity" : ".4843382542673153",
        "semi_major_axis" : "2.359933139852248",
        "inclination" : "7.384810397920441",
        "ascending_node_longitude" : "135.4458068338959",
        "orbital_period" : "1324.182900249107",
        "perihelion_distance" : "1.216927242708626",
        "perihelion_argument" : "199.4155903427813",
        "aphelion_distance" : "3.50293903699587",
        "perihelion_time" : "2457476.751626720352",
        "mean_anomaly" : "142.3892532860854",
        "mean_motion" : ".2718657671325286",
        "equinox" : "J2000"
      }
    }, {
      "links" : {
        "self" : "https://api.nasa.gov/neo/rest/v1/neo/3680252?api_key=t0TVs3DtDT2H8Oy2Zy8m2eVrNsAVKAexjcZXUckd"
      },
      "neo_reference_id" : "3680252",
      "name" : "(2014 PQ58)",
      "nasa_jpl_url" : "http://ssd.jpl.nasa.gov/sbdb.cgi?sstr=3680252",
      "absolute_magnitude_h" : 24.1,
      "estimated_diameter" : {
        "kilometers" : {
          "estimated_diameter_min" : 0.040230458,
          "estimated_diameter_max" : 0.0899580388
        },
        "meters" : {
          "estimated_diameter_min" : 40.2304579834,
          "estimated_diameter_max" : 89.9580388169
        },
        "miles" : {
          "estimated_diameter_min" : 0.0249980399,
          "estimated_diameter_max" : 0.0558973165
        },
        "feet" : {
          "estimated_diameter_min" : 131.9896957704,
          "estimated_diameter_max" : 295.1379320721
        }
      },
      "is_potentially_hazardous_asteroid" : false,
      "close_approach_data" : [ {
        "close_approach_date" : "2001-08-15",
        "epoch_date_close_approach" : 997858800000,
        "relative_velocity" : {
          "kilometers_per_second" : "10.6286833957",
          "kilometers_per_hour" : "38263.2602245985",
          "miles_per_hour" : "23775.3018878901"
        },
        "miss_distance" : {
          "astronomical" : "0.3649112516",
          "lunar" : "141.9504852295",
          "kilometers" : "54589948",
          "miles" : "33920620"
        },
        "orbiting_body" : "Earth"
      } ],
      "orbital_data" : {
        "orbit_id" : "5",
        "orbit_determination_date" : "2017-04-06 08:39:20",
        "orbit_uncertainty" : "7",
        "minimum_orbit_intersection" : ".0579241",
        "jupiter_tisserand_invariant" : "5.286",
        "epoch_osculation" : "2458000.5",
        "eccentricity" : ".1031704611153602",
        "semi_major_axis" : "1.193832147915179",
        "inclination" : "13.20663622165626",
        "ascending_node_longitude" : "139.0319761380571",
        "orbital_period" : "476.4456116419354",
        "perihelion_distance" : "1.070663934720429",
        "perihelion_argument" : "172.4678274308629",
        "aphelion_distance" : "1.317000361109929",
        "perihelion_time" : "2457824.077000635675",
        "mean_anomaly" : "133.3043651137426",
        "mean_motion" : ".75559516386217",
        "equinox" : "J2000"
      }
    }, {
      "links" : {
        "self" : "https://api.nasa.gov/neo/rest/v1/neo/3725154?api_key=t0TVs3DtDT2H8Oy2Zy8m2eVrNsAVKAexjcZXUckd"
      },
      "neo_reference_id" : "3725154",
      "name" : "(2015 OT78)",
      "nasa_jpl_url" : "http://ssd.jpl.nasa.gov/sbdb.cgi?sstr=3725154",
      "absolute_magnitude_h" : 22.4,
      "estimated_diameter" : {
        "kilometers" : {
          "estimated_diameter_min" : 0.0880146521,
          "estimated_diameter_max" : 0.1968067451
        },
        "meters" : {
          "estimated_diameter_min" : 88.0146520901,
          "estimated_diameter_max" : 196.8067450894
        },
        "miles" : {
          "estimated_diameter_min" : 0.0546897524,
          "estimated_diameter_max" : 0.122290004
        },
        "feet" : {
          "estimated_diameter_min" : 288.7619911632,
          "estimated_diameter_max" : 645.6914415591
        }
      },
      "is_potentially_hazardous_asteroid" : false,
      "close_approach_data" : [ {
        "close_approach_date" : "2001-08-15",
        "epoch_date_close_approach" : 997858800000,
        "relative_velocity" : {
          "kilometers_per_second" : "6.8981510023",
          "kilometers_per_hour" : "24833.3436084023",
          "miles_per_hour" : "15430.4739771209"
        },
        "miss_distance" : {
          "astronomical" : "0.2106895618",
          "lunar" : "81.9582366943",
          "kilometers" : "31518710",
          "miles" : "19584818"
        },
        "orbiting_body" : "Earth"
      } ],
      "orbital_data" : {
        "orbit_id" : "24",
        "orbit_determination_date" : "2017-04-06 08:32:39",
        "orbit_uncertainty" : "5",
        "minimum_orbit_intersection" : ".176799",
        "jupiter_tisserand_invariant" : "3.406",
        "epoch_osculation" : "2458000.5",
        "eccentricity" : ".4840430016055265",
        "semi_major_axis" : "2.302213511457592",
        "inclination" : "10.23793726254991",
        "ascending_node_longitude" : "316.2736130450344",
        "orbital_period" : "1275.900549574725",
        "perihelion_distance" : "1.18784317303486",
        "perihelion_argument" : "9.359399737415286",
        "aphelion_distance" : "3.416583849880325",
        "perihelion_time" : "2458531.943150970473",
        "mean_anomaly" : "210.0513739780582",
        "mean_motion" : ".2821536522732849",
        "equinox" : "J2000"
      }
    } ]
  }
}